$$SOE
2460147.500000000, A.D. 2023-Jul-22 00:00:00.0000, -4.305556108596229E+08, -1.332925284407322E+07, -5.887618575429296E+07,
2460154.500000000, A.D. 2023-Jul-29 00:00:00.0000, -4.296642333343707E+08, -2.401535900766562E+07, -5.787005729857758E+07,
2460161.500000000, A.D. 2023-Aug-05 00:00:00.0000, -4.285181329007556E+08, -3.468723543166148E+07, -5.682961133646765E+07,
2460168.500000000, A.D. 2023-Aug-12 00:00:00.0000, -4.271170257656938E+08, -4.533847748746414E+07, -5.575533659059019E+07,
2460175.500000000, A.D. 2023-Aug-19 00:00:00.0000, -4.254607976510118E+08, -5.596264656238763E+07, -5.464774832064106E+07,
2460182.500000000, A.D. 2023-Aug-26 00:00:00.0000, -4.235495063076892E+08, -6.655327500165775E+07, -5.350738825252420E+07,
2460189.500000000, A.D. 2023-Sep-02 00:00:00.0000, -4.213833838941501E+08, -7.710387127797006E+07, -5.233482447706169E+07,
2460196.500000000, A.D. 2023-Sep-09 00:00:00.0000, -4.189628391719028E+08, -8.760792542441428E+07, -5.113065132395360E+07,
2460203.500000000, A.D. 2023-Sep-16 00:00:00.0000, -4.162884593402404E+08, -9.805891478274587E+07, -4.989548923021817E+07,
2460210.500000000, A.D. 2023-Sep-23 00:00:00.0000, -4.133610110838118E+08, -1.084503097734203E+08, -4.862998461695059E+07,
2460217.500000000, A.D. 2023-Sep-30 00:00:00.0000, -4.101814411626229E+08, -1.187755784891933E+08, -4.733480964500395E+07,
2460224.500000000, A.D. 2023-Oct-07 00:00:00.0000, -4.067508788884396E+08, -1.290281906476196E+08, -4.601066167731068E+07,
2460231.500000000, A.D. 2023-Oct-14 00:00:00.0000, -4.030706394400506E+08, -1.392016242080993E+08, -4.465826281378484E+07,
2460238.500000000, A.D. 2023-Oct-21 00:00:00.0000, -3.991422247822992E+08, -1.492893730411802E+08, -4.327835966370815E+07,
2460245.500000000, A.D. 2023-Oct-28 00:00:00.0000, -3.949673236046605E+08, -1.592849533785264E+08, -4.187172303928301E+07,
2460252.500000000, A.D. 2023-Nov-04 00:00:00.0000, -3.905478115198788E+08, -1.691819098030588E+08, -4.043914751773640E+07,
2460259.500000000, A.D. 2023-Nov-11 00:00:00.0000, -3.858857513373937E+08, -1.789738213690680E+08, -3.898145093705536E+07,
2460266.500000000, A.D. 2023-Nov-18 00:00:00.0000, -3.809833931863300E+08, -1.886543079058328E+08, -3.749947385090170E+07,
2460273.500000000, A.D. 2023-Nov-25 00:00:00.0000, -3.758431744101862E+08, -1.982170364701681E+08, -3.599407894768155E+07,
2460280.500000000, A.D. 2023-Dec-02 00:00:00.0000, -3.704677192001104E+08, -2.076557279463686E+08, -3.446615043740782E+07,
2460287.500000000, A.D. 2023-Dec-09 00:00:00.0000, -3.648598378844320E+08, -2.169641638394597E+08, -3.291659341861509E+07,
2460294.500000000, A.D. 2023-Dec-16 00:00:00.0000, -3.590225255831993E+08, -2.261361932359585E+08, -3.134633325122662E+07,
2460301.500000000, A.D. 2023-Dec-23 00:00:00.0000, -3.529589598763767E+08, -2.351657392310378E+08, -2.975631491191912E+07,
2460308.500000000, A.D. 2023-Dec-30 00:00:00.0000, -3.466724988234859E+08, -2.440468037586434E+08, -2.814750212424280E+07,
2460315.500000000, A.D. 2024-Jan-06 00:00:00.0000, -3.401666811056544E+08, -2.527734731713674E+08, -2.652087629510951E+07,
2460322.500000000, A.D. 2024-Jan-13 00:00:00.0000, -3.334452251184303E+08, -2.613399263633085E+08, -2.487743569791272E+07,
2460329.500000000, A.D. 2024-Jan-20 00:00:00.0000, -3.265120257940342E+08, -2.697404423354226E+08, -2.321819476368214E+07,
2460336.500000000, A.D. 2024-Jan-27 00:00:00.0000, -3.193711511819209E+08, -2.779694065329019E+08, -2.154418324168754E+07,
2460343.500000000, A.D. 2024-Feb-03 00:00:00.0000, -3.120268392142823E+08, -2.860213168856315E+08, -1.985644526875615E+07,
2460350.500000000, A.D. 2024-Feb-10 00:00:00.0000, -3.044834943781365E+08, -2.938907898283644E+08, -1.815603839839430E+07,
2460357.500000000, A.D. 2024-Feb-17 00:00:00.0000, -2.967456841577587E+08, -3.015725662810460E+08, -1.644403260439792E+07,
2460364.500000000, A.D. 2024-Feb-24 00:00:00.0000, -2.888181352178830E+08, -3.090615175634024E+08, -1.472150926384635E+07,
2460371.500000000, A.D. 2024-Mar-02 00:00:00.0000, -2.807057293069116E+08, -3.163526512640009E+08, -1.298956012735346E+07,
2460378.500000000, A.D. 2024-Mar-09 00:00:00.0000, -2.724134987503531E+08, -3.234411171129766E+08, -1.124928629662561E+07,
2460385.500000000, A.D. 2024-Mar-16 00:00:00.0000, -2.639466211479428E+08, -3.303222126469004E+08, -9.501797231444836E+06,
2460392.500000000, A.D. 2024-Mar-23 00:00:00.0000, -2.553104133864766E+08, -3.369913875423821E+08, -7.748209687907487E+06,
2460399.500000000, A.D. 2024-Mar-30 00:00:00.0000, -2.465103272175483E+08, -3.434442466311556E+08, -5.989646386651322E+06,
2460406.500000000, A.D. 2024-Apr-06 00:00:00.0000, -2.375519461526236E+08, -3.496765549521359E+08, -4.227234712183982E+06,
2460413.500000000, A.D. 2024-Apr-13 00:00:00.0000, -2.284409801351289E+08, -3.556842439942416E+08, -2.462105703199193E+06,
2460420.500000000, A.D. 2024-Apr-20 00:00:00.0000, -2.191832589542060E+08, -3.614634164434295E+08, -6.953930301224738E+05,
2460427.500000000, A.D. 2024-Apr-27 00:00:00.0000, -2.097847259297434E+08, -3.670103499846270E+08, 1.071768131146893E+06,
2460434.500000000, A.D. 2024-May-04 00:00:00.0000, -2.002514317933268E+08, -3.723215008514141E+08, 2.838242261421368E+06,
2460441.500000000, A.D. 2024-May-11 00:00:00.0000, -1.905895285394854E+08, -3.773935072156492E+08, 4.602894663681179E+06,
2460448.500000000, A.D. 2024-May-18 00:00:00.0000, -1.808052631785725E+08, -3.822231923871868E+08, 6.364592623523101E+06,
2460455.500000000, A.D. 2024-May-25 00:00:00.0000, -1.709049713807690E+08, -3.868075678236092E+08, 8.122206559328228E+06,
2460462.500000000, A.D. 2024-Jun-01 00:00:00.0000, -1.608950709660012E+08, -3.911438360007420E+08, 9.874611149660349E+06,
2460469.500000000, A.D. 2024-Jun-08 00:00:00.0000, -1.507820550079287E+08, -3.952293931609821E+08, 1.162068641115034E+07,
2460476.500000000, A.D. 2024-Jun-15 00:00:00.0000, -1.405724841669061E+08, -3.990618313897341E+08, 1.335931873250780E+07,
2460483.500000000, A.D. 2024-Jun-22 00:00:00.0000, -1.302729792717132E+08, -4.026389388413137E+08, 1.508940205065921E+07,
2460490.500000000, A.D. 2024-Jun-29 00:00:00.0000, -1.198902162860795E+08, -4.059586999325895E+08, 1.680983921251942E+07,
2460497.500000000, A.D. 2024-Jul-06 00:00:00.0000, -1.094309210295677E+08, -4.090192979753804E+08, 1.851954307560404E+07,
2460504.500000000, A.D. 2024-Jul-13 00:00:00.0000, -9.890186171957634E+07, -4.118191174258178E+08, 2.021743739759180E+07,
2460511.500000000, A.D. 2024-Jul-20 00:00:00.0000, -8.830984133687137E+07, -4.143567446040860E+08, 2.190245778914860E+07,
2460518.500000000, A.D. 2024-Jul-27 00:00:00.0000, -7.766169048692101E+07, -4.166309678455549E+08, 2.357355271001853E+07,
2460525.500000000, A.D. 2024-Aug-03 00:00:00.0000, -6.696426049967177E+07, -4.186407774599472E+08, 2.522968445082870E+07,
2460532.500000000, A.D. 2024-Aug-10 00:00:00.0000, -5.622441661665969E+07, -4.203853655052417E+08, 2.686983008302537E+07,
2460539.500000000, A.D. 2024-Aug-17 00:00:00.0000, -4.544903123182788E+07, -4.218641253580464E+08, 2.849298237235537E+07,
2460546.500000000, A.D. 2024-Aug-24 00:00:00.0000, -3.464497717142159E+07, -4.230766511078950E+08, 3.009815064971653E+07,
2460553.500000000, A.D. 2024-Aug-31 00:00:00.0000, -2.381912091055904E+07, -4.240227368435766E+08, 3.168436162228024E+07,
2460560.500000000, A.D. 2024-Sep-07 00:00:00.0000, -1.297831537418558E+07, -4.247023757125859E+08, 3.325066010047728E+07,
2460567.500000000, A.D. 2024-Sep-14 00:00:00.0000, -2.129392250222246E+06, -4.251157577657318E+08, 3.479610971337491E+07,
2460574.500000000, A.D. 2024-Sep-21 00:00:00.0000, 8.720844143399341E+06, -4.252632661819414E+08, 3.631979383123398E+07,
2460581.500000000, A.D. 2024-Sep-28 00:00:00.0000, 1.956562093832555E+07, -4.251454751078513E+08, 3.782081647501439E+07,
2460588.500000000, A.D. 2024-Oct-05 00:00:00.0000, 3.039820240073914E+07, -4.247631491183837E+08, 3.929830287530017E+07,
2460595.500000000, A.D. 2024-Oct-12 00:00:00.0000, 4.121189685054074E+07, -4.241172413268005E+08, 4.075139995636317E+07,
2460602.500000000, A.D. 2024-Oct-19 00:00:00.0000, 5.200006305462577E+07, -4.232088904230247E+08, 4.217927688279401E+07,
2460609.500000000, A.D. 2024-Oct-26 00:00:00.0000, 6.275611605484937E+07, -4.220394174504027E+08, 4.358112560523769E+07,
2460616.500000000, A.D. 2024-Nov-02 00:00:00.0000, 7.347353268222030E+07, -4.206103224803073E+08, 4.495616136912178E+07,
2460623.500000000, A.D. 2024-Nov-09 00:00:00.0000, 8.414585684802137E+07, -4.189232811765789E+08, 4.630362317941768E+07,
2460630.500000000, A.D. 2024-Nov-16 00:00:00.0000, 9.476670463154361E+07, -4.169801412624640E+08, 4.762277421957573E+07,
2460637.500000000, A.D. 2024-Nov-23 00:00:00.0000, 1.053297692054735E+08, -4.147829189524611E+08, 4.891290221685673E+07,
2460644.500000000, A.D. 2024-Nov-30 00:00:00.0000, 1.158288258020064E+08, -4.123337954040228E+08, 5.017331973221806E+07,
2460651.500000000, A.D. 2024-Dec-07 00:00:00.0000, 1.262577371344640E+08, -4.096351127806646E+08, 5.140336437149975E+07,
2460658.500000000, A.D. 2024-Dec-14 00:00:00.0000, 1.366104585815645E+08, -4.066893687142168E+08, 5.260239908186664E+07,
2460665.500000000, A.D. 2024-Dec-21 00:00:00.0000, 1.468810408121154E+08, -4.034992104174137E+08, 5.376981264520882E+07,
2460672.500000000, A.D. 2024-Dec-28 00:00:00.0000, 1.570636318205061E+08, -4.000674314236134E+08, 5.490501994531938E+07,
2460679.500000000, A.D. 2025-Jan-04 00:00:00.0000, 1.671524809699314E+08, -3.963969685883718E+08, 5.600746196559480E+07,
2460686.500000000, A.D. 2025-Jan-11 00:00:00.0000, 1.771419432220978E+08, -3.924908977051042E+08, 5.707660582124335E+07,
2460693.500000000, A.D. 2025-Jan-18 00:00:00.0000, 1.870264826365410E+08, -3.883524286652227E+08, 5.811194483633091E+07,
2460700.500000000, A.D. 2025-Jan-25 00:00:00.0000, 1.968006753836085E+08, -3.839849006482959E+08, 5.911299860583247E+07,
2460707.500000000, A.D. 2025-Feb-01 00:00:00.0000, 2.064592124616777E+08, -3.793917773830686E+08, 6.007931302415395E+07,
$$EOE